NORAD_CAT_ID,OBJECT_NAME,OBJECT_TYPE,EPOCH,MEAN_MOTION,ECCENTRICITY,INCLINATION,RA_OF_ASC_NODE,ARG_OF_PERICENTER,MEAN_ANOMALY,BSTAR,MEAN_MOTION_DOT,MEAN_MOTION_DDOT,TLE_LINE0,TLE_LINE1,TLE_LINE2,SEMIMAJOR_AXIS,PERIOD,APOGEE,PERIGEE,DECAYED
55272.0,STARLINK-5310,PAYLOAD,2023-12-03 03:33:26,14.98320177,0.0002996,70.0021,331.1703,277.3952,82.6866,-0.0002453,-3.018e-05,0.0,0 STARLINK-5310,1 55272U 23010D   23337.14822904 -.00003018  00000-0 -24530-3 0  9996,2 55272  70.0021 331.1703 0002996 277.3952  82.6866 14.98320177 48518,6950.223,96.108,574.171,570.006,0.0
55272.0,STARLINK-5310,PAYLOAD,2023-12-03 09:57:59,14.98308965,0.0002358,70.0023,330.4919,267.9011,92.1878,-0.00042571,-5.166e-05,0.0,0 STARLINK-5310,1 55272U 23010D   23337.41527649 -.00005166  00000-0 -42571-3 0  9995,2 55272  70.0023 330.4919 0002358 267.9011  92.1878 14.98308965 48862,6950.258,96.108,573.762,570.484,0.0
55272.0,STARLINK-5310,PAYLOAD,2023-12-04 03:35:28,14.9831953,0.0002303,70.0027,328.6419,253.3619,106.7287,-6.4895e-05,-8.67e-06,0.0,0 STARLINK-5310,1 55272U 23010D   23338.14963986 -.00000867  00000-0 -64895-4 0  9991,2 55272  70.0027 328.6419 0002303 253.3619 106.7287 14.98319530 48667,6950.225,96.108,573.691,570.49,0.0
55272.0,STARLINK-5310,PAYLOAD,2023-12-04 10:00:01,14.98319146,0.0002094,70.0029,327.9671,270.7803,89.3116,-9.0775e-05,-1.175e-05,0.0,0 STARLINK-5310,1 55272U 23010D   23338.41668572 -.00001175  00000-0 -90775-4 0  9993,2 55272  70.0029 327.9671 0002094 270.7803  89.3116 14.98319146 49016,6950.226,96.108,573.547,570.636,0.0
55272.0,STARLINK-5310,PAYLOAD,2023-12-05 03:37:30,14.98323702,0.0002447,70.0018,326.117,265.146,94.942,0.0005054,5.941e-05,0.0,0 STARLINK-5310,1 55272U 23010D   23339.15104749  .00005941  00000-0  50540-3 0  9994,2 55272  70.0018 326.1170 0002447 265.1460  94.9420 14.98323702 48818,6950.212,96.107,573.778,570.377,0.0
55272.0,STARLINK-5310,PAYLOAD,2023-12-05 10:02:02,14.98328015,0.0001878,70.0026,325.4442,281.3729,78.7219,0.00054595,6.427e-05,0.0,0 STARLINK-5310,1 55272U 23010D   23339.41808971  .00006427  00000-0  54595-3 0  9995,2 55272  70.0026 325.4442 0001878 281.3729  78.7219 14.98328015 49163,6950.199,96.107,573.369,570.759,0.0
55272.0,STARLINK-5310,PAYLOAD,2023-12-05 22:51:07,14.98324773,0.0002113,70.0032,324.1001,256.8227,103.2697,0.0013005,0.00015456,0.0,0 STARLINK-5310,1 55272U 23010D   23339.95216502  .00015456  00000-0  13005-2 0  9999,2 55272  70.0032 324.1001 0002113 256.8227 103.2697 14.98324773 49240,6950.209,96.107,573.543,570.605,0.0
55272.0,STARLINK-5310,PAYLOAD,2023-12-06 03:39:31,14.98329004,0.0002163,70.0034,323.5945,227.8281,132.2694,0.0012027,0.00014286,0.0,0 STARLINK-5310,1 55272U 23010D   23340.15244309  .00014286  00000-0  12027-2 0  9992,2 55272  70.0034 323.5945 0002163 227.8281 132.2694 14.98329004 48964,6950.196,96.107,573.564,570.558,0.0
55272.0,STARLINK-5310,PAYLOAD,2023-12-06 08:27:55,14.98314244,0.0002013,70.0036,323.0894,269.7313,90.3616,0.00067257,7.938e-05,0.0,0 STARLINK-5310,1 55272U 23010D   23340.35272996  .00007938  00000-0  67257-3 0  9999,2 55272  70.0036 323.0894 0002013 269.7313  90.3616 14.98314244 48990,6950.242,96.108,573.506,570.708,0.0
55272.0,STARLINK-5310,PAYLOAD,2023-12-06 22:53:06,14.98336968,0.0002551,70.0025,321.5734,271.7648,88.3219,3.7367e-05,3.53e-06,0.0,0 STARLINK-5310,1 55272U 23010D   23340.95355146  .00000353  00000-0  37367-4 0  9998,2 55272  70.0025 321.5734 0002551 271.7648  88.3219 14.98336968 49393,6950.171,96.107,573.809,570.263,0.0
55272.0,STARLINK-5310,PAYLOAD,2023-12-07 05:17:39,14.98332635,0.0002241,70.0023,320.9002,250.4381,109.6536,-9.5805e-05,-1.236e-05,0.0,0 STARLINK-5310,1 55272U 23010D   23341.22059126 -.00001236  00000-0 -95805-4 0  9992,2 55272  70.0023 320.9002 0002241 250.4381 109.6536 14.98332635 49123,6950.185,96.107,573.607,570.492,0.0
55272.0,STARLINK-5310,PAYLOAD,2023-12-07 08:29:55,14.98324265,0.0002217,70.0022,320.5601,283.1657,76.9255,0.00017563,2.003e-05,0.0,0 STARLINK-5310,1 55272U 23010D   23341.35411819  .00002003  00000-0  17563-3 0  9992,2 55272  70.0022 320.5601 0002217 283.1657  76.9255 14.98324265 49141,6950.211,96.107,573.616,570.535,0.0
55272.0,STARLINK-5310,PAYLOAD,2023-12-08 03:43:31,14.98345969,0.0002117,70.0011,318.5412,264.7766,95.3151,-3.9615e-05,-5.66e-06,0.0,0 STARLINK-5310,1 55272U 23010D   23342.15522384 -.00000566  00000-0 -39615-4 0  9998,2 55272  70.0011 318.5412 0002117 264.7766  95.3151 14.98345969 49268,6950.144,96.106,573.48,570.537,0.0
55272.0,STARLINK-5310,PAYLOAD,2023-12-08 08:31:55,14.98339183,0.00024,70.0008,318.0357,275.899,84.1895,-6.5699e-05,-8.77e-06,0.0,0 STARLINK-5310,1 55272U 23010D   23342.35550760 -.00000877  00000-0 -65699-4 0  9995,2 55272  70.0008 318.0357 0002400 275.8990  84.1895 14.98339183 49299,6950.164,96.106,573.698,570.361,0.0
55272.0,STARLINK-5310,PAYLOAD,2023-12-09 03:45:32,14.98327325,0.0001786,70.002,316.0179,279.7822,80.3135,7.1045e-05,7.55e-06,0.0,0 STARLINK-5310,1 55272U 23010D   23343.15663142  .00000755  00000-0  71045-4 0  9998,2 55272  70.0020 316.0179 0001786 279.7822  80.3135 14.98327325 49410,6950.201,96.107,573.307,570.825,0.0
55272.0,STARLINK-5310,PAYLOAD,2023-12-09 08:33:56,14.98335308,0.0002538,70.0,315.5097,276.7036,83.3834,0.0001861,2.128e-05,0.0,0 STARLINK-5310,1 55272U 23010D   23343.35690508  .00002128  00000-0  18610-3 0  9990,2 55272  70.0000 315.5097 0002538 276.7036  83.3834 14.98335308 49757,6950.176,96.107,573.805,570.278,0.0
55272.0,STARLINK-5310,PAYLOAD,2023-12-10 08:35:57,14.98329189,0.0001918,70.0033,312.9831,285.5621,74.5327,0.00017461,1.991e-05,0.0,0 STARLINK-5310,1 55272U 23010D   23344.35830836  .00001991  00000-0  17461-3 0  9991,2 55272  70.0033 312.9831 0001918 285.5621  74.5327 14.98329189 49590,6950.195,96.107,573.393,570.727,0.0
55272.0,STARLINK-5310,PAYLOAD,2023-12-11 03:49:33,14.98361188,0.0002009,70.0005,310.9677,246.5845,113.5103,-0.00051352,-6.219e-05,0.0,0 STARLINK-5310,1 55272U 23010D   23345.15941813 -.00006219  00000-0 -51352-3 0  9995,2 55272  70.0005 310.9677 0002009 246.5845 113.5103 14.98361188 49717,6950.096,96.105,573.358,570.565,0.0
55272.0,STARLINK-5310,PAYLOAD,2023-12-11 07:01:50,14.98329063,0.0001982,70.0009,310.631,268.3624,91.7308,9.0435e-05,9.86e-06,0.0,0 STARLINK-5310,1 55272U 23010D   23345.29294867  .00000986  00000-0  90435-4 0  9999,2 55272  70.0009 310.6310 0001982 268.3624  91.7308 14.98329063 49730,6950.196,96.107,573.438,570.683,0.0
55272.0,STARLINK-5310,PAYLOAD,2023-12-11 23:03:10,14.98332368,0.0002581,69.9995,308.9469,265.7665,94.3199,0.00011903,1.328e-05,0.0,0 STARLINK-5310,1 55272U 23010D   23345.96054098  .00001328  00000-0  11903-3 0  9996,2 55272  69.9995 308.9469 0002581 265.7665  94.3199 14.98332368 50144,6950.186,96.107,573.844,570.257,0.0
55272.0,STARLINK-5310,PAYLOAD,2023-12-12 07:03:51,14.98333327,0.0002591,69.9995,308.1055,264.7055,95.3808,0.00012485,1.397e-05,0.0,0 STARLINK-5310,1 55272U 23010D   23346.29434079  .00001397  00000-0  12485-3 0  9996,2 55272  69.9995 308.1055 0002591 264.7055  95.3808 14.98333327 49883,6950.183,96.107,573.848,570.247,0.0
55272.0,STARLINK-5310,PAYLOAD,2023-12-12 23:05:11,14.98332144,0.0002468,69.9999,306.4229,255.0213,105.0673,0.00010039,1.105e-05,0.0,0 STARLINK-5310,1 55272U 23010D   23346.96194171  .00001105  00000-0  10039-3 0  9996,2 55272  69.9999 306.4229 0002468 255.0213 105.0673 14.98332144 50295,6950.186,96.107,573.767,570.336,0.0
55272.0,STARLINK-5310,PAYLOAD,2023-12-13 07:05:52,14.98330771,0.0002456,69.9999,305.5811,254.2275,105.8613,8.4864e-05,9.2e-06,0.0,0 STARLINK-5310,1 55272U 23010D   23347.29574196  .00000920  00000-0  84864-4 0  9994,2 55272  69.9999 305.5811 0002456 254.2275 105.8613 14.98330771 50036,6950.191,96.107,573.762,570.349,0.0
55272.0,STARLINK-5310,PAYLOAD,2023-12-13 21:31:04,14.9832898,0.0002344,70.0003,304.0667,250.4345,109.6561,5.4571e-05,5.58e-06,0.0,0 STARLINK-5310,1 55272U 23010D   23347.89658374  .00000558  00000-0  54571-4 0  9990,2 55272  70.0003 304.0667 0002344 250.4345 109.6561 14.98328980 50437,6950.196,96.107,573.69,570.432,0.0
55272.0,STARLINK-5310,PAYLOAD,2023-12-14 07:07:53,14.98326738,0.0002377,70.0002,303.0563,252.161,107.929,2.7933e-05,2.4e-06,0.0,0 STARLINK-5310,1 55272U 23010D   23348.29714634  .00000240  00000-0  27933-4 0  9997,2 55272  70.0002 303.0563 0002377 252.1610 107.9290 14.98326738 50181,6950.203,96.107,573.72,570.416,0.0
55272.0,STARLINK-5310,PAYLOAD,2023-12-14 21:33:05,14.9833086,0.0002797,70.0003,301.5414,259.3273,100.7571,9.3883e-05,1.027e-05,0.0,0 STARLINK-5310,1 55272U 23010D   23348.89798121  .00001027  00000-0  93883-4 0  9997,2 55272  70.0003 301.5414 0002797 259.3273 100.7571 14.98330860 50588,6950.19,96.107,573.999,570.111,0.0
55272.0,STARLINK-5310,PAYLOAD,2023-12-15 03:57:37,14.98337938,0.0002367,69.9994,300.8651,259.6849,100.4043,0.00018494,2.115e-05,0.0,0 STARLINK-5310,1 55272U 23010D   23349.16501529  .00002115  00000-0  18494-3 0  9995,2 55272  69.9994 300.8651 0002367 259.6849 100.4043 14.98337938 50319,6950.168,96.106,573.678,570.388,0.0
55272.0,STARLINK-5310,PAYLOAD,2023-12-15 07:09:53,14.98340035,0.0002522,69.9995,300.5297,268.6949,91.3921,0.00017636,2.012e-05,0.0,0 STARLINK-5310,1 55272U 23010D   23349.29853412  .00002012  00000-0  17636-3 0  9993,2 55272  69.9995 300.5297 0002522 268.6949  91.3921 14.98340035 50648,6950.162,96.106,573.78,570.274,0.0
55272.0,STARLINK-5310,PAYLOAD,2023-12-15 21:35:06,14.98328067,0.0002139,70.0014,299.0162,245.3095,114.7842,0.00013076,1.468e-05,0.0,0 STARLINK-5310,1 55272U 23010D   23349.89938207  .00001468  00000-0  13076-3 0  9993,2 55272  70.0014 299.0162 0002139 245.3095 114.7842 14.98328067 50737,6950.199,96.107,573.551,570.577,0.0
55272.0,STARLINK-5310,PAYLOAD,2023-12-16 03:59:39,14.98328342,0.0002468,69.9996,298.3421,255.1341,104.9545,6.5643e-05,6.9e-06,0.0,0 STARLINK-5310,1 55272U 23010D   23350.16642365  .00000690  00000-0  65643-4 0  9996,2 55272  69.9996 298.3421 0002468 255.1341 104.9545 14.98328342 50468,6950.198,96.107,573.778,570.348,0.0
